SL-16 R/B               
1 22566U 93016B   26048.99028418 -.00000208  00000+0 -82389-4 0  9996
2 22566  71.0045 256.5578 0010616 340.9424  19.1300 14.15300434699382
COSMOS 2242             
1 22626U 93024A   26049.11162323  .00001799  00000+0  15588-3 0  9991
2 22626  82.5176 285.4444 0016862  16.3343 343.8419 14.96466123777468
SL-16 R/B               
1 22803U 93059B   26049.20820789 -.00000127  00000+0 -39034-4 0  9992
2 22803  70.9892  52.2089 0019309 243.4048 116.5097 14.17227481676774
ARIANE 40 R/B           
1 22830U 93061H   26049.21579835  .00000196  00000+0  87510-4 0  9995
2 22830  98.4959 118.4837 0010202 347.8500  12.2437 14.32850137691318
COSMOS 2278             
1 23087U 94023A   26048.72428648  .00000171  00000+0  11384-3 0  9997
2 23087  71.0506 216.8667 0007033  52.8744 307.3020 14.14364771641981
SL-16 R/B               
1 23088U 94023B   26049.27465488  .00000353  00000+0  20677-3 0  9999
2 23088  70.9994 111.6639 0004802 303.7931  56.2734 14.15008605643345
SL-16 R/B               
1 23343U 94074B   26049.11222935  .00000461  00000+0  68491-4 0  9997
2 23343  97.7135  80.7204 0005170 289.3339 137.4169 14.79383747684350
SL-16 R/B               
1 23405U 94077B   26049.26383335  .00000208  00000+0  13091-3 0  9991
2 23405  70.9833  33.3555 0003943 229.9332 130.1445 14.15562877613485
ARIANE 40+ R/B          
1 23561U 95021B   26049.21993799  .00000289  00000+0  10621-3 0  9995
2 23561  98.4538 120.9624 0006673 190.5171 235.7426 14.39757585616440
SL-16 R/B               
1 23705U 95058B   26048.77517672 -.00000086  00000+0 -19495-4 0  9993
2 23705  71.0199 222.0634 0011570 159.9873 200.1706 14.15495889565030
SL-16 R/B               
1 24298U 96051B   26048.76944355  .00000079  00000+0  69667-4 0  9992
2 24298  70.7572 217.4012 0016833 176.3751 183.7494 14.12409971518832
ORBVIEW 2 (SEASTAR)     
1 24883U 97037A   26048.97090043  .00000262  00000+0  10728-3 0  9993
2 24883  98.8530 212.7639 0003146 111.3334 248.8187 14.35478926505647
