CCSDS_OMM_VERS = 2.0
CREATION_DATE  = 
ORIGINATOR     = 

OBJECT_NAME    = SL-16 R/B
OBJECT_ID      = 1993-016B
CENTER_NAME    = EARTH
REF_FRAME      = TEME
TIME_SYSTEM    = UTC
MEAN_ELEMENT_THEORY = SGP/SGP4

EPOCH          = 2026-02-17T23:46:00.553152
MEAN_MOTION    = 14.15300434
ECCENTRICITY   = .00106165
INCLINATION    = 71.0045
RA_OF_ASC_NODE = 256.5578
ARG_OF_PERICENTER = 340.9424
MEAN_ANOMALY   = 19.1300

EPHEMERIS_TYPE = 0
CLASSIFICATION_TYPE = U
NORAD_CAT_ID   = 22566
ELEMENT_SET_NO = 999
REV_AT_EPOCH   = 69938
BSTAR          = -.82388922E-4
MEAN_MOTION_DOT = -.208E-5
MEAN_MOTION_DDOT = 0

CCSDS_OMM_VERS = 2.0
CREATION_DATE  = 
ORIGINATOR     = 

OBJECT_NAME    = COSMOS 2242
OBJECT_ID      = 1993-024A
CENTER_NAME    = EARTH
REF_FRAME      = TEME
TIME_SYSTEM    = UTC
MEAN_ELEMENT_THEORY = SGP/SGP4

EPOCH          = 2026-02-18T02:40:44.247072
MEAN_MOTION    = 14.96466123
ECCENTRICITY   = .00168629
INCLINATION    = 82.5176
RA_OF_ASC_NODE = 285.4444
ARG_OF_PERICENTER = 16.3343
MEAN_ANOMALY   = 343.8419

EPHEMERIS_TYPE = 0
CLASSIFICATION_TYPE = U
NORAD_CAT_ID   = 22626
ELEMENT_SET_NO = 999
REV_AT_EPOCH   = 77746
BSTAR          = .15587905E-3
MEAN_MOTION_DOT = .1799E-4
MEAN_MOTION_DDOT = 0

CCSDS_OMM_VERS = 2.0
CREATION_DATE  = 
ORIGINATOR     = 

OBJECT_NAME    = SL-16 R/B
OBJECT_ID      = 1993-059B
CENTER_NAME    = EARTH
REF_FRAME      = TEME
TIME_SYSTEM    = UTC
MEAN_ELEMENT_THEORY = SGP/SGP4

EPOCH          = 2026-02-18T04:59:49.161696
MEAN_MOTION    = 14.17227481
ECCENTRICITY   = .00193099
INCLINATION    = 70.9892
RA_OF_ASC_NODE = 52.2089
ARG_OF_PERICENTER = 243.4048
MEAN_ANOMALY   = 116.5097

EPHEMERIS_TYPE = 0
CLASSIFICATION_TYPE = U
NORAD_CAT_ID   = 22803
ELEMENT_SET_NO = 999
REV_AT_EPOCH   = 67677
BSTAR          = -.39034458E-4
MEAN_MOTION_DOT = -.127E-5
MEAN_MOTION_DDOT = 0

CCSDS_OMM_VERS = 2.0
CREATION_DATE  = 
ORIGINATOR     = 

OBJECT_NAME    = ARIANE 40 R/B
OBJECT_ID      = 1993-061H
CENTER_NAME    = EARTH
REF_FRAME      = TEME
TIME_SYSTEM    = UTC
MEAN_ELEMENT_THEORY = SGP/SGP4

EPOCH          = 2026-02-18T05:10:44.977440
MEAN_MOTION    = 14.32850137
ECCENTRICITY   = .00102022
INCLINATION    = 98.4959
RA_OF_ASC_NODE = 118.4837
ARG_OF_PERICENTER = 347.8500
MEAN_ANOMALY   = 12.2437

EPHEMERIS_TYPE = 0
CLASSIFICATION_TYPE = U
NORAD_CAT_ID   = 22830
ELEMENT_SET_NO = 999
REV_AT_EPOCH   = 69131
BSTAR          = .87509991E-4
MEAN_MOTION_DOT = .196E-5
MEAN_MOTION_DDOT = 0

CCSDS_OMM_VERS = 2.0
CREATION_DATE  = 
ORIGINATOR     = 

OBJECT_NAME    = COSMOS 2278
OBJECT_ID      = 1994-023A
CENTER_NAME    = EARTH
REF_FRAME      = TEME
TIME_SYSTEM    = UTC
MEAN_ELEMENT_THEORY = SGP/SGP4

EPOCH          = 2026-02-17T17:22:58.351872
MEAN_MOTION    = 14.14364771
ECCENTRICITY   = .0007033
INCLINATION    = 71.0506
RA_OF_ASC_NODE = 216.8667
ARG_OF_PERICENTER = 52.8744
MEAN_ANOMALY   = 307.3020

EPHEMERIS_TYPE = 0
CLASSIFICATION_TYPE = U
NORAD_CAT_ID   = 23087
ELEMENT_SET_NO = 999
REV_AT_EPOCH   = 64198
BSTAR          = .11384E-3
MEAN_MOTION_DOT = .171E-5
MEAN_MOTION_DDOT = 0

CCSDS_OMM_VERS = 2.0
CREATION_DATE  = 
ORIGINATOR     = 

OBJECT_NAME    = SL-16 R/B
OBJECT_ID      = 1994-023B
CENTER_NAME    = EARTH
REF_FRAME      = TEME
TIME_SYSTEM    = UTC
MEAN_ELEMENT_THEORY = SGP/SGP4

EPOCH          = 2026-02-18T06:35:30.181632
MEAN_MOTION    = 14.15008605
ECCENTRICITY   = .0004802
INCLINATION    = 70.9994
RA_OF_ASC_NODE = 111.6639
ARG_OF_PERICENTER = 303.7931
MEAN_ANOMALY   = 56.2734

EPHEMERIS_TYPE = 0
CLASSIFICATION_TYPE = U
NORAD_CAT_ID   = 23088
ELEMENT_SET_NO = 999
REV_AT_EPOCH   = 64334
BSTAR          = .20676946E-3
MEAN_MOTION_DOT = .353E-5
MEAN_MOTION_DDOT = 0

CCSDS_OMM_VERS = 2.0
CREATION_DATE  = 
ORIGINATOR     = 

OBJECT_NAME    = SL-16 R/B
OBJECT_ID      = 1994-074B
CENTER_NAME    = EARTH
REF_FRAME      = TEME
TIME_SYSTEM    = UTC
MEAN_ELEMENT_THEORY = SGP/SGP4

EPOCH          = 2026-02-18T02:41:36.615840
MEAN_MOTION    = 14.79383747
ECCENTRICITY   = .00051702
INCLINATION    = 97.7135
RA_OF_ASC_NODE = 80.7204
ARG_OF_PERICENTER = 289.3339
MEAN_ANOMALY   = 137.4169

EPHEMERIS_TYPE = 0
CLASSIFICATION_TYPE = U
NORAD_CAT_ID   = 23343
ELEMENT_SET_NO = 999
REV_AT_EPOCH   = 68435
BSTAR          = .68490925E-4
MEAN_MOTION_DOT = .461E-5
MEAN_MOTION_DDOT = 0

CCSDS_OMM_VERS = 2.0
CREATION_DATE  = 
ORIGINATOR     = 

OBJECT_NAME    = SL-16 R/B
OBJECT_ID      = 1994-077B
CENTER_NAME    = EARTH
REF_FRAME      = TEME
TIME_SYSTEM    = UTC
MEAN_ELEMENT_THEORY = SGP/SGP4

EPOCH          = 2026-02-18T06:19:55.201440
MEAN_MOTION    = 14.15562877
ECCENTRICITY   = .00039432
INCLINATION    = 70.9833
RA_OF_ASC_NODE = 33.3555
ARG_OF_PERICENTER = 229.9332
MEAN_ANOMALY   = 130.1445

EPHEMERIS_TYPE = 0
CLASSIFICATION_TYPE = U
NORAD_CAT_ID   = 23405
ELEMENT_SET_NO = 999
REV_AT_EPOCH   = 61348
BSTAR          = .13090929E-3
MEAN_MOTION_DOT = .208E-5
MEAN_MOTION_DDOT = 0

CCSDS_OMM_VERS = 2.0
CREATION_DATE  = 
ORIGINATOR     = 

OBJECT_NAME    = ARIANE 40+ R/B
OBJECT_ID      = 1995-021B
CENTER_NAME    = EARTH
REF_FRAME      = TEME
TIME_SYSTEM    = UTC
MEAN_ELEMENT_THEORY = SGP/SGP4

EPOCH          = 2026-02-18T05:16:42.642336
MEAN_MOTION    = 14.39757585
ECCENTRICITY   = .00066731
INCLINATION    = 98.4538
RA_OF_ASC_NODE = 120.9624
ARG_OF_PERICENTER = 190.5171
MEAN_ANOMALY   = 235.7426

EPHEMERIS_TYPE = 0
CLASSIFICATION_TYPE = U
NORAD_CAT_ID   = 23561
ELEMENT_SET_NO = 999
REV_AT_EPOCH   = 61644
BSTAR          = .10621172E-3
MEAN_MOTION_DOT = .289E-5
MEAN_MOTION_DDOT = 0

CCSDS_OMM_VERS = 2.0
CREATION_DATE  = 
ORIGINATOR     = 

OBJECT_NAME    = SL-16 R/B
OBJECT_ID      = 1995-058B
CENTER_NAME    = EARTH
REF_FRAME      = TEME
TIME_SYSTEM    = UTC
MEAN_ELEMENT_THEORY = SGP/SGP4

EPOCH          = 2026-02-17T18:36:15.268608
MEAN_MOTION    = 14.15495889
ECCENTRICITY   = .001157
INCLINATION    = 71.0199
RA_OF_ASC_NODE = 222.0634
ARG_OF_PERICENTER = 159.9873
MEAN_ANOMALY   = 200.1706

EPHEMERIS_TYPE = 0
CLASSIFICATION_TYPE = U
NORAD_CAT_ID   = 23705
ELEMENT_SET_NO = 999
REV_AT_EPOCH   = 56503
BSTAR          = -.19495E-4
MEAN_MOTION_DOT = -.86E-6
MEAN_MOTION_DDOT = 0

CCSDS_OMM_VERS = 2.0
CREATION_DATE  = 
ORIGINATOR     = 

OBJECT_NAME    = SL-16 R/B
OBJECT_ID      = 1996-051B
CENTER_NAME    = EARTH
REF_FRAME      = TEME
TIME_SYSTEM    = UTC
MEAN_ELEMENT_THEORY = SGP/SGP4

EPOCH          = 2026-02-17T18:27:59.922720
MEAN_MOTION    = 14.12409971
ECCENTRICITY   = .0016833
INCLINATION    = 70.7572
RA_OF_ASC_NODE = 217.4012
ARG_OF_PERICENTER = 176.3751
MEAN_ANOMALY   = 183.7494

EPHEMERIS_TYPE = 0
CLASSIFICATION_TYPE = U
NORAD_CAT_ID   = 24298
ELEMENT_SET_NO = 999
REV_AT_EPOCH   = 51883
BSTAR          = .69667E-4
MEAN_MOTION_DOT = .79E-6
MEAN_MOTION_DDOT = 0

CCSDS_OMM_VERS = 2.0
CREATION_DATE  = 
ORIGINATOR     = 

OBJECT_NAME    = ORBVIEW 2 (SEASTAR)
OBJECT_ID      = 1997-037A
CENTER_NAME    = EARTH
REF_FRAME      = TEME
TIME_SYSTEM    = UTC
MEAN_ELEMENT_THEORY = SGP/SGP4

EPOCH          = 2026-02-17T23:18:05.797152
MEAN_MOTION    = 14.35478926
ECCENTRICITY   = .0003146
INCLINATION    = 98.8530
RA_OF_ASC_NODE = 212.7639
ARG_OF_PERICENTER = 111.3334
MEAN_ANOMALY   = 248.8187

EPHEMERIS_TYPE = 0
CLASSIFICATION_TYPE = U
NORAD_CAT_ID   = 24883
ELEMENT_SET_NO = 999
REV_AT_EPOCH   = 50564
BSTAR          = .10728E-3
MEAN_MOTION_DOT = .262E-5
MEAN_MOTION_DDOT = 0

